STARLINK-34458          
1 64360U 25126S   26061.35904495  .00043624  00000+0  36376-2 0  9994
2 64360  70.0015  52.9460 0003373 263.7441  96.3333 14.98367493 39589
STARLINK-34243          
1 64361U 25126T   26061.96400674  .00000395  00000+0  40911-4 0  9992
2 64361  70.0020  51.4474 0002907 264.3876  95.6951 14.98344062 39671
STARLINK-34335          
1 64362U 25126U   26061.40489070  .00003982  00000+0  34126-3 0  9994
2 64362  70.0010  52.7060 0003415 267.9345  92.1423 14.98339398 39594
STARLINK-34408          
1 64363U 25126V   26061.39654429  .00004577  00000+0  39091-3 0  9992
2 64363  70.0009  52.6756 0003320 273.4010  86.6769 14.98352313 39593
STARLINK-34476          
1 64364U 25126W   26061.95149180  .00005202  00000+0  44333-3 0  9999
2 64364  70.0019  51.4021 0002730 266.3891  93.6956 14.98340932 39678
STARLINK-34479          
1 64365U 25126X   26061.39239285  .00009965  00000+0  84131-3 0  9994
2 64365  70.0005  53.0581 0005444 280.7775  79.2771 14.98343701 39581
STARLINK-34484          
1 64366U 25126Y   26061.40071886  .00005630  00000+0  47915-3 0  9992
2 64366  70.0015  52.6864 0002807 268.8031  91.2806 14.98338194 40804
STARLINK-34483          
1 64367U 25126Z   26061.93913459  .00006200  00000+0  52674-3 0  9994
2 64367  70.0018  51.3530 0002915 268.9421  91.1404 14.98344706 39670
STARLINK-34457          
1 64368U 25126AA  26061.97651828  .00026954  00000+0  22530-2 0  9993
2 64368  70.0021  51.4860 0003000 260.2681  99.8139 14.98417132 39675
STARLINK-34444          
1 64369U 25126AB  26061.38005906  .00006581  00000+0  55865-3 0  9991
2 64369  70.0003  53.0151 0002998 275.1608  84.9209 14.98343328 39584
STARLINK-11732 [DTC]    
1 64370U 25127A   26061.58084944  .00214484  00000+0  16276-2 0  9990
2 64370  43.0010 127.4511 0002607 274.1615  85.8955 15.70907486 42386
STARLINK-11731 [DTC]    
1 64371U 25127B   26061.53319628  .00228335  00000+0  17315-2 0  9991
2 64371  43.0037 127.9611 0001980 265.4525  94.6117 15.70881720 42377
STARLINK-11746 [DTC]    
1 64372U 25127C   26061.31059102  .00093340  00000+0  72187-3 0  9991
2 64372  43.0010 128.8564 0001503 272.7399  87.3296 15.70869578 42348
STARLINK-11748 [DTC]    
1 64373U 25127D   26061.54472529  .00211275  00000+0  16069-2 0  9994
2 64373  43.0036 128.0535 0002073 291.7844  68.2803 15.70863677 42375
STARLINK-11739 [DTC]    
1 64374U 25127E   26061.61258070  .00155068  00000+0  11888-2 0  9997
2 64374  43.0031 126.8088 0001158 273.7285  86.3450 15.70854742 42396
STARLINK-11738 [DTC]    
1 64375U 25127F   26061.54381390  .00109819  00000+0  84765-3 0  9990
2 64375  43.0001 128.0454 0001088 271.9829  88.0914 15.70852225 42377
