[{"OBJECT_NAME":"STARLINK-34458","OBJECT_ID":"2025-126S","EPOCH":"2026-03-02T08:37:01.483680","MEAN_MOTION":14.98367493,"ECCENTRICITY":0.00033733,"INCLINATION":70.0015,"RA_OF_ASC_NODE":52.946,"ARG_OF_PERICENTER":263.7441,"MEAN_ANOMALY":96.3333,"EPHEMERIS_TYPE":0,"CLASSIFICATION_TYPE":"U","NORAD_CAT_ID":64360,"ELEMENT_SET_NO":999,"REV_AT_EPOCH":3958,"BSTAR":0.0036375859,"MEAN_MOTION_DOT":0.00043624,"MEAN_MOTION_DDOT":0},{"OBJECT_NAME":"STARLINK-34243","OBJECT_ID":"2025-126T","EPOCH":"2026-03-02T23:08:10.182336","MEAN_MOTION":14.98344062,"ECCENTRICITY":0.00029077,"INCLINATION":70.002,"RA_OF_ASC_NODE":51.4474,"ARG_OF_PERICENTER":264.3876,"MEAN_ANOMALY":95.6951,"EPHEMERIS_TYPE":0,"CLASSIFICATION_TYPE":"U","NORAD_CAT_ID":64361,"ELEMENT_SET_NO":999,"REV_AT_EPOCH":3967,"BSTAR":4.091136e-5,"MEAN_MOTION_DOT":3.95e-6,"MEAN_MOTION_DDOT":0},{"OBJECT_NAME":"STARLINK-34335","OBJECT_ID":"2025-126U","EPOCH":"2026-03-02T09:43:02.556480","MEAN_MOTION":14.98339398,"ECCENTRICITY":0.00034159,"INCLINATION":70.001,"RA_OF_ASC_NODE":52.706,"ARG_OF_PERICENTER":267.9345,"MEAN_ANOMALY":92.1423,"EPHEMERIS_TYPE":0,"CLASSIFICATION_TYPE":"U","NORAD_CAT_ID":64362,"ELEMENT_SET_NO":999,"REV_AT_EPOCH":3959,"BSTAR":0.00034125824,"MEAN_MOTION_DOT":3.982e-5,"MEAN_MOTION_DDOT":0},{"OBJECT_NAME":"STARLINK-34408","OBJECT_ID":"2025-126V","EPOCH":"2026-03-02T09:31:01.426656","MEAN_MOTION":14.98352313,"ECCENTRICITY":0.000332,"INCLINATION":70.0009,"RA_OF_ASC_NODE":52.6756,"ARG_OF_PERICENTER":273.401,"MEAN_ANOMALY":86.6769,"EPHEMERIS_TYPE":0,"CLASSIFICATION_TYPE":"U","NORAD_CAT_ID":64363,"ELEMENT_SET_NO":999,"REV_AT_EPOCH":3959,"BSTAR":0.00039091323,"MEAN_MOTION_DOT":4.577e-5,"MEAN_MOTION_DDOT":0},{"OBJECT_NAME":"STARLINK-34476","OBJECT_ID":"2025-126W","EPOCH":"2026-03-02T22:50:08.891520","MEAN_MOTION":14.98340932,"ECCENTRICITY":0.00027303,"INCLINATION":70.0019,"RA_OF_ASC_NODE":51.4021,"ARG_OF_PERICENTER":266.3891,"MEAN_ANOMALY":93.6956,"EPHEMERIS_TYPE":0,"CLASSIFICATION_TYPE":"U","NORAD_CAT_ID":64364,"ELEMENT_SET_NO":999,"REV_AT_EPOCH":3967,"BSTAR":0.00044333096,"MEAN_MOTION_DOT":5.202e-5,"MEAN_MOTION_DDOT":0},{"OBJECT_NAME":"STARLINK-34479","OBJECT_ID":"2025-126X","EPOCH":"2026-03-02T09:25:02.742240","MEAN_MOTION":14.98343701,"ECCENTRICITY":0.00054448,"INCLINATION":70.0005,"RA_OF_ASC_NODE":53.0581,"ARG_OF_PERICENTER":280.7775,"MEAN_ANOMALY":79.2771,"EPHEMERIS_TYPE":0,"CLASSIFICATION_TYPE":"U","NORAD_CAT_ID":64365,"ELEMENT_SET_NO":999,"REV_AT_EPOCH":3958,"BSTAR":0.00084131212,"MEAN_MOTION_DOT":9.965e-5,"MEAN_MOTION_DDOT":0},{"OBJECT_NAME":"STARLINK-34484","OBJECT_ID":"2025-126Y","EPOCH":"2026-03-02T09:37:02.109504","MEAN_MOTION":14.98338194,"ECCENTRICITY":0.0002807,"INCLINATION":70.0015,"RA_OF_ASC_NODE":52.6864,"ARG_OF_PERICENTER":268.8031,"MEAN_ANOMALY":91.2806,"EPHEMERIS_TYPE":0,"CLASSIFICATION_TYPE":"U","NORAD_CAT_ID":64366,"ELEMENT_SET_NO":999,"REV_AT_EPOCH":4080,"BSTAR":0.00047914788,"MEAN_MOTION_DOT":5.63e-5,"MEAN_MOTION_DDOT":0},{"OBJECT_NAME":"STARLINK-34483","OBJECT_ID":"2025-126Z","EPOCH":"2026-03-02T22:32:21.228576","MEAN_MOTION":14.98344706,"ECCENTRICITY":0.00029153,"INCLINATION":70.0018,"RA_OF_ASC_NODE":51.353,"ARG_OF_PERICENTER":268.9421,"MEAN_ANOMALY":91.1404,"EPHEMERIS_TYPE":0,"CLASSIFICATION_TYPE":"U","NORAD_CAT_ID":64367,"ELEMENT_SET_NO":999,"REV_AT_EPOCH":3967,"BSTAR":0.00052673801,"MEAN_MOTION_DOT":6.2e-5,"MEAN_MOTION_DDOT":0},{"OBJECT_NAME":"STARLINK-34457","OBJECT_ID":"2025-126AA","EPOCH":"2026-03-02T23:26:11.179392","MEAN_MOTION":14.98417132,"ECCENTRICITY":0.00030005,"INCLINATION":70.0021,"RA_OF_ASC_NODE":51.486,"ARG_OF_PERICENTER":260.2681,"MEAN_ANOMALY":99.8139,"EPHEMERIS_TYPE":0,"CLASSIFICATION_TYPE":"U","NORAD_CAT_ID":64368,"ELEMENT_SET_NO":999,"REV_AT_EPOCH":3967,"BSTAR":0.0022530041,"MEAN_MOTION_DOT":0.00026954,"MEAN_MOTION_DDOT":0},{"OBJECT_NAME":"STARLINK-34444","OBJECT_ID":"2025-126AB","EPOCH":"2026-03-02T09:07:17.102784","MEAN_MOTION":14.98343328,"ECCENTRICITY":0.00029985,"INCLINATION":70.0003,"RA_OF_ASC_NODE":53.0151,"ARG_OF_PERICENTER":275.1608,"MEAN_ANOMALY":84.9209,"EPHEMERIS_TYPE":0,"CLASSIFICATION_TYPE":"U","NORAD_CAT_ID":64369,"ELEMENT_SET_NO":999,"REV_AT_EPOCH":3958,"BSTAR":0.00055864647,"MEAN_MOTION_DOT":6.581e-5,"MEAN_MOTION_DDOT":0},{"OBJECT_NAME":"STARLINK-11732 [DTC]","OBJECT_ID":"2025-127A","EPOCH":"2026-03-02T13:56:25.391616","MEAN_MOTION":15.70907486,"ECCENTRICITY":0.0002607,"INCLINATION":43.001,"RA_OF_ASC_NODE":127.4511,"ARG_OF_PERICENTER":274.1615,"MEAN_ANOMALY":85.8955,"EPHEMERIS_TYPE":0,"CLASSIFICATION_TYPE":"U","NORAD_CAT_ID":64370,"ELEMENT_SET_NO":999,"REV_AT_EPOCH":4238,"BSTAR":0.0016276,"MEAN_MOTION_DOT":0.00214484,"MEAN_MOTION_DDOT":0},{"OBJECT_NAME":"STARLINK-11731 [DTC]","OBJECT_ID":"2025-127B","EPOCH":"2026-03-02T12:47:48.158592","MEAN_MOTION":15.7088172,"ECCENTRICITY":0.000198,"INCLINATION":43.0037,"RA_OF_ASC_NODE":127.9611,"ARG_OF_PERICENTER":265.4525,"MEAN_ANOMALY":94.6117,"EPHEMERIS_TYPE":0,"CLASSIFICATION_TYPE":"U","NORAD_CAT_ID":64371,"ELEMENT_SET_NO":999,"REV_AT_EPOCH":4237,"BSTAR":0.0017315,"MEAN_MOTION_DOT":0.00228335,"MEAN_MOTION_DDOT":0},{"OBJECT_NAME":"STARLINK-11746 [DTC]","OBJECT_ID":"2025-127C","EPOCH":"2026-03-02T07:27:15.064128","MEAN_MOTION":15.70869578,"ECCENTRICITY":0.00015039,"INCLINATION":43.001,"RA_OF_ASC_NODE":128.8564,"ARG_OF_PERICENTER":272.7399,"MEAN_ANOMALY":87.3296,"EPHEMERIS_TYPE":0,"CLASSIFICATION_TYPE":"U","NORAD_CAT_ID":64372,"ELEMENT_SET_NO":999,"REV_AT_EPOCH":4234,"BSTAR":0.00072187092,"MEAN_MOTION_DOT":0.0009334,"MEAN_MOTION_DDOT":0},{"OBJECT_NAME":"STARLINK-11748 [DTC]","OBJECT_ID":"2025-127D","EPOCH":"2026-03-02T13:04:24.265056","MEAN_MOTION":15.70863677,"ECCENTRICITY":0.0002073,"INCLINATION":43.0036,"RA_OF_ASC_NODE":128.0535,"ARG_OF_PERICENTER":291.7844,"MEAN_ANOMALY":68.2803,"EPHEMERIS_TYPE":0,"CLASSIFICATION_TYPE":"U","NORAD_CAT_ID":64373,"ELEMENT_SET_NO":999,"REV_AT_EPOCH":4237,"BSTAR":0.0016069,"MEAN_MOTION_DOT":0.00211275,"MEAN_MOTION_DDOT":0},{"OBJECT_NAME":"STARLINK-11739 [DTC]","OBJECT_ID":"2025-127E","EPOCH":"2026-03-02T14:42:06.972480","MEAN_MOTION":15.70854742,"ECCENTRICITY":0.0001158,"INCLINATION":43.0031,"RA_OF_ASC_NODE":126.8088,"ARG_OF_PERICENTER":273.7285,"MEAN_ANOMALY":86.345,"EPHEMERIS_TYPE":0,"CLASSIFICATION_TYPE":"U","NORAD_CAT_ID":64374,"ELEMENT_SET_NO":999,"REV_AT_EPOCH":4239,"BSTAR":0.0011888,"MEAN_MOTION_DOT":0.00155068,"MEAN_MOTION_DDOT":0},{"OBJECT_NAME":"STARLINK-11738 [DTC]","OBJECT_ID":"2025-127F","EPOCH":"2026-03-02T13:03:05.520960","MEAN_MOTION":15.70852225,"ECCENTRICITY":0.0001088,"INCLINATION":43.0001,"RA_OF_ASC_NODE":128.0454,"ARG_OF_PERICENTER":271.9829,"MEAN_ANOMALY":88.0914,"EPHEMERIS_TYPE":0,"CLASSIFICATION_TYPE":"U","NORAD_CAT_ID":64375,"ELEMENT_SET_NO":999,"REV_AT_EPOCH":4237,"BSTAR":0.00084765,"MEAN_MOTION_DOT":0.00109819,"MEAN_MOTION_DDOT":0}]
